NORAD_CAT_ID,OBJECT_NAME,OBJECT_TYPE,EPOCH,MEAN_MOTION,ECCENTRICITY,INCLINATION,RA_OF_ASC_NODE,ARG_OF_PERICENTER,MEAN_ANOMALY,BSTAR,MEAN_MOTION_DOT,MEAN_MOTION_DDOT,TLE_LINE0,TLE_LINE1,TLE_LINE2,SEMIMAJOR_AXIS,PERIOD,APOGEE,PERIGEE,DECAYED
53594.0,STARLINK-4681,PAYLOAD,2023-03-17 18:03:21,15.08839108,0.0001385,53.2156,88.0339,88.287,271.8281,0.00078482,0.00012224,0.0,0 STARLINK-4681,1 53594U 22104G   23076.75233210  .00012224  00000-0  78482-3 0  9999,2 53594  53.2156  88.0339 0001385  88.2870 271.8281 15.08839108 31849,6917.883,95.438,540.706,538.79,0.0
53594.0,STARLINK-4681,PAYLOAD,2023-03-18 00:24:54,15.08844041,0.0001435,53.2159,86.8449,85.194,274.9216,0.00082801,0.00012916,0.0,0 STARLINK-4681,1 53594U 22104G   23077.01729221  .00012916  00000-0  82801-3 0  9999,2 53594  53.2159  86.8449 0001435  85.1940 274.9216 15.08844041 30720,6917.868,95.437,540.726,538.74,0.0
53594.0,STARLINK-4681,PAYLOAD,2023-03-18 17:54:08,15.08857456,0.0001037,53.2145,83.5723,95.7561,264.3549,0.00077838,0.00012128,0.0,0 STARLINK-4681,1 53594U 22104G   23077.74592644  .00012128  00000-0  77838-3 0  9995,2 53594  53.2145  83.5723 0001037  95.7561 264.3549 15.08857456 31994,6917.827,95.436,540.409,538.975,0.0
53594.0,STARLINK-4681,PAYLOAD,2023-03-19 05:01:50,15.08851225,0.000183,53.2148,81.491,85.7655,274.3546,0.00047932,7.351e-05,0.0,0 STARLINK-4681,1 53594U 22104G   23078.20960818  .00007351  00000-0  47932-3 0  9993,2 53594  53.2148  81.4910 0001830  85.7655 274.3546 15.08851225 30902,6917.846,95.437,540.977,538.445,0.0
53594.0,STARLINK-4681,PAYLOAD,2023-03-19 11:23:22,15.08855079,0.0001386,53.2151,80.3013,89.8821,270.233,0.00063374,9.817e-05,0.0,0 STARLINK-4681,1 53594U 22104G   23078.47456527  .00009817  00000-0  63374-3 0  9996,2 53594  53.2151  80.3013 0001386  89.8821 270.2330 15.08855079 32105,6917.834,95.437,540.658,538.74,0.0
53594.0,STARLINK-4681,PAYLOAD,2023-03-20 04:52:37,15.08847539,0.0001089,53.2149,77.0303,94.8872,265.2244,0.00056208,8.671e-05,0.0,0 STARLINK-4681,1 53594U 22104G   23079.20320708  .00008671  00000-0  56208-3 0  9994,2 53594  53.2149  77.0303 0001089  94.8872 265.2244 15.08847539 31052,6917.857,95.437,540.476,538.969,0.0
53594.0,STARLINK-4681,PAYLOAD,2023-03-20 11:14:09,15.08854267,0.0001174,53.2156,75.8409,87.7846,272.328,0.00067449,0.00010467,0.0,0 STARLINK-4681,1 53594U 22104G   23079.46816532  .00010467  00000-0  67449-3 0  9992,2 53594  53.2156  75.8409 0001174  87.7846 272.3280 15.08854267 32258,6917.837,95.437,540.514,538.89,0.0
53594.0,STARLINK-4681,PAYLOAD,2023-03-21 06:18:47,15.08847879,0.0001205,53.2164,72.2735,88.9208,271.1922,0.0007448,0.00011588,0.0,0 STARLINK-4681,1 53594U 22104G   23080.26304983  .00011588  00000-0  74480-3 0  9992,2 53594  53.2164  72.2735 0001205  88.9208 271.1922 15.08847879 31216,6917.856,95.437,540.555,538.888,0.0
53594.0,STARLINK-4681,PAYLOAD,2023-03-21 09:29:33,15.08848931,0.0001254,53.2164,71.6785,89.9821,270.1315,0.0011023,0.00017303,0.0,0 STARLINK-4681,1 53594U 22104G   23080.39553018  .00017303  00000-0  11023-2 0  9995,2 53594  53.2164  71.6785 0001254  89.9821 270.1315 15.08848931 32395,6917.853,95.437,540.586,538.851,0.0
53594.0,STARLINK-4681,PAYLOAD,2023-03-22 06:09:34,15.0885063,0.0001156,53.216,67.8131,92.1725,267.94,0.0010387,0.00016286,0.0,0 STARLINK-4681,1 53594U 22104G   23081.25665175  .00016286  00000-0  10387-2 0  9990,2 53594  53.2160  67.8131 0001156  92.1725 267.9400 15.08850630 31367,6917.848,95.437,540.513,538.913,0.0
53594.0,STARLINK-4681,PAYLOAD,2023-03-22 15:41:53,15.08842134,8.56e-05,53.2169,66.0283,112.4928,247.6155,0.00020565,2.987e-05,0.0,0 STARLINK-4681,1 53594U 22104G   23081.65409064  .00002987  00000-0  20565-3 0  9990,2 53594  53.2169  66.0283 0000856 112.4928 247.6155 15.08842134 31421,6917.874,95.437,540.331,539.147,0.0
53594.0,STARLINK-4681,PAYLOAD,2023-03-23 06:00:21,15.08854962,0.0001001,53.2162,63.3524,109.4421,250.6679,0.0014047,0.00022148,0.0,0 STARLINK-4681,1 53594U 22104G   23082.25024920  .00022148  00000-0  14047-2 0  9999,2 53594  53.2162  63.3524 0001001 109.4421 250.6679 15.08854962 31516,6917.835,95.437,540.392,539.007,0.0
53594.0,STARLINK-4681,PAYLOAD,2023-03-23 15:32:40,15.08853946,8.08e-05,53.2164,61.5684,88.8962,271.2122,0.0013613,0.00021452,0.0,0 STARLINK-4681,1 53594U 22104G   23082.64768952  .00021452  00000-0  13613-2 0  9997,2 53594  53.2164  61.5684 0000808  88.8962 271.2122 15.08853946 31578,6917.838,95.437,540.262,539.144,0.0
53594.0,STARLINK-4681,PAYLOAD,2023-03-24 10:37:17,15.08888171,0.0001185,53.2171,57.9988,83.3024,276.8103,0.0031902,0.00050918,0.0,0 STARLINK-4681,1 53594U 22104G   23083.44256516  .00050918  00000-0  31902-2 0  9994,2 53594  53.2171  57.9988 0001185  83.3024 276.8103 15.08888171 32850,6917.733,95.435,540.418,538.778,0.0
53594.0,STARLINK-4681,PAYLOAD,2023-03-24 15:23:27,15.08849321,6.97e-05,53.2166,57.1078,94.4568,265.6504,0.00034317,5.179e-05,0.0,0 STARLINK-4681,1 53594U 22104G   23083.64128591  .00005179  00000-0  34317-3 0  9990,2 53594  53.2166  57.1078 0000697  94.4568 265.6504 15.08849321 31729,6917.852,95.437,540.199,539.235,0.0
53594.0,STARLINK-4681,PAYLOAD,2023-03-25 15:14:14,15.08853007,0.0001484,53.2171,52.6482,70.0085,290.1067,0.0016733,0.00026452,0.0,0 STARLINK-4681,1 53594U 22104G   23084.63489121  .00026452  00000-0  16733-2 0  9997,2 53594  53.2171  52.6482 0001484  70.0085 290.1067 15.08853007 31872,6917.841,95.437,540.732,538.679,0.0
53594.0,STARLINK-4681,PAYLOAD,2023-03-26 03:57:19,15.08843915,0.0001335,53.217,50.2679,82.1318,277.9825,0.0016225,0.00025631,0.0,0 STARLINK-4681,1 53594U 22104G   23085.16481419  .00025631  00000-0  16225-2 0  9992,2 53594  53.2170  50.2679 0001335  82.1318 277.9825 15.08843915 31952,6917.868,95.437,540.657,538.81,0.0
53594.0,STARLINK-4681,PAYLOAD,2023-03-26 07:08:06,15.08848496,0.0001319,53.2169,49.6734,80.7816,279.3325,0.0021372,0.00033897,0.0,0 STARLINK-4681,1 53594U 22104G   23085.29729475  .00033897  00000-0  21372-2 0  9995,2 53594  53.2169  49.6734 0001319  80.7816 279.3325 15.08848496 33135,6917.854,95.437,540.632,538.807,0.0
53594.0,STARLINK-4681,PAYLOAD,2023-03-27 03:48:07,15.08854914,0.0001387,53.2173,45.8092,68.2578,291.8562,0.0017945,0.00028399,0.0,0 STARLINK-4681,1 53594U 22104G   23086.15841970  .00028399  00000-0  17945-2 0  9998,2 53594  53.2173  45.8092 0001387  68.2578 291.8562 15.08854914 32106,6917.835,95.437,540.659,538.74,0.0
53594.0,STARLINK-4681,PAYLOAD,2023-03-27 21:17:21,15.0886181,0.0001555,53.2173,42.5382,72.8131,287.3031,0.0022157,0.00035172,0.0,0 STARLINK-4681,1 53594U 22104G   23086.88705947  .00035172  00000-0  22157-2 0  9999,2 53594  53.2173  42.5382 0001555  72.8131 287.3031 15.08861810 32211,6917.814,95.436,540.754,538.603,0.0
53594.0,STARLINK-4681,PAYLOAD,2023-03-28 03:38:54,15.08862636,0.0001379,53.218,41.3488,80.4559,279.6589,0.0012539,0.00019736,0.0,0 STARLINK-4681,1 53594U 22104G   23087.15201458  .00019736  00000-0  12539-2 0  9999,2 53594  53.2180  41.3488 0001379  80.4559 279.6589 15.08862636 32259,6917.811,95.436,540.63,538.722,0.0
53594.0,STARLINK-4681,PAYLOAD,2023-03-28 19:32:43,15.08896916,0.0001225,53.2183,38.3752,80.5624,279.5507,0.001388,0.00021905,0.0,0 STARLINK-4681,1 53594U 22104G   23087.81439486  .00021905  00000-0  13880-2 0  9997,2 53594  53.2183  38.3752 0001225  80.5624 279.5507 15.08896916 33513,6917.706,95.434,540.419,538.724,0.0
53594.0,STARLINK-4681,PAYLOAD,2023-03-29 06:40:27,15.08859417,0.0001212,53.2176,36.2934,96.2548,263.8582,0.00065584,0.00010171,0.0,0 STARLINK-4681,1 53594U 22104G   23088.27809122  .00010171  00000-0  65584-3 0  9998,2 53594  53.2176  36.2934 0001212  96.2548 263.8582 15.08859417 32422,6917.821,95.436,540.524,538.848,0.0
53594.0,STARLINK-4681,PAYLOAD,2023-03-30 01:45:05,15.08839559,0.000143,53.2178,32.7253,119.3917,240.7218,0.00033691,5.078e-05,0.0,0 STARLINK-4681,1 53594U 22104G   23089.07297517  .00005078  00000-0  33691-3 0  9990,2 53594  53.2178  32.7253 0001430 119.3917 240.7218 15.08839559 32546,6917.882,95.438,540.736,538.757,0.0
53594.0,STARLINK-4681,PAYLOAD,2023-03-30 12:52:47,15.08836546,0.0001435,53.2176,30.6449,108.4708,251.644,0.00039897,6.067e-05,0.0,0 STARLINK-4681,1 53594U 22104G   23089.53665890  .00006067  00000-0  39897-3 0  9997,2 53594  53.2176  30.6449 0001435 108.4708 251.6440 15.08836546 32619,6917.891,95.438,540.749,538.763,0.0
53594.0,STARLINK-4681,PAYLOAD,2023-03-31 19:05:06,15.08845716,0.0001009,53.2169,24.9943,128.2449,231.8634,0.00026061,3.863e-05,0.0,0 STARLINK-4681,1 53594U 22104G   23090.79521759  .00003863  00000-0  26061-3 0  9992,2 53594  53.2169  24.9943 0001009 128.2449 231.8634 15.08845716 32800,6917.863,95.437,540.426,539.03,0.0
53594.0,STARLINK-4681,PAYLOAD,2023-04-01 04:37:25,15.08850002,0.0001161,53.2177,23.21,90.5315,269.5811,0.00027227,4.049e-05,0.0,0 STARLINK-4681,1 53594U 22104G   23091.19265736  .00004049  00000-0  27227-3 0  9999,2 53594  53.2177  23.2100 0001161  90.5315 269.5811 15.08850002 34023,6917.85,95.437,540.518,538.912,0.0
53594.0,STARLINK-4681,PAYLOAD,2023-04-02 01:17:27,15.08831882,0.0001794,53.218,19.3456,75.338,284.7811,5.3221e-05,5.59e-06,0.0,0 STARLINK-4681,1 53594U 22104G   23092.05379109  .00000559  00000-0  53221-4 0  9991,2 53594  53.2180  19.3456 0001794  75.3380 284.7811 15.08831882 32990,6917.905,95.438,541.011,538.529,0.0
53594.0,STARLINK-4681,PAYLOAD,2023-04-02 18:46:41,15.08844802,0.000124,53.2196,16.0713,94.9551,265.1582,0.00027764,4.134e-05,0.0,0 STARLINK-4681,1 53594U 22104G   23092.78242970  .00004134  00000-0  27764-3 0  9991,2 53594  53.2196  16.0713 0001240  94.9551 265.1582 15.08844802 34266,6917.866,95.437,540.589,538.873,0.0
53594.0,STARLINK-4681,PAYLOAD,2023-04-03 01:08:14,15.08854279,0.0001126,53.2167,14.8849,71.2543,288.8571,0.00069019,0.00010718,0.0,0 STARLINK-4681,1 53594U 22104G   23093.04738893  .00010718  00000-0  69019-3 0  9999,2 53594  53.2167  14.8849 0001126  71.2543 288.8571 15.08854279 33147,6917.837,95.437,540.481,538.923,0.0
